[{"OBJECT_NAME":"KUIPER-00011","OBJECT_ID":"2025-088D","EPOCH":"2026-03-09T06:15:09.756576","MEAN_MOTION":14.79821634,"ECCENTRICITY":9.971e-5,"INCLINATION":51.8995,"RA_OF_ASC_NODE":92.5537,"ARG_OF_PERICENTER":103.2236,"MEAN_ANOMALY":256.8837,"EPHEMERIS_TYPE":0,"CLASSIFICATION_TYPE":"U","NORAD_CAT_ID":63727,"ELEMENT_SET_NO":999,"REV_AT_EPOCH":4769,"BSTAR":0.00052945008,"MEAN_MOTION_DOT":3.807e-5,"MEAN_MOTION_DDOT":0},{"OBJECT_NAME":"SL-24 DEB","OBJECT_ID":"2009-041J","EPOCH":"2026-03-09T23:26:33.856800","MEAN_MOTION":14.8487122,"ECCENTRICITY":0.00185833,"INCLINATION":97.633,"RA_OF_ASC_NODE":243.3649,"ARG_OF_PERICENTER":230.8314,"MEAN_ANOMALY":129.1251,"EPHEMERIS_TYPE":0,"CLASSIFICATION_TYPE":"U","NORAD_CAT_ID":35689,"ELEMENT_SET_NO":999,"REV_AT_EPOCH":89436,"BSTAR":0.00040149584,"MEAN_MOTION_DOT":3.372e-5,"MEAN_MOTION_DDOT":0}]
